OBJECT_NAME,OBJECT_ID,EPOCH,MEAN_MOTION,ECCENTRICITY,INCLINATION,RA_OF_ASC_NODE,ARG_OF_PERICENTER,MEAN_ANOMALY,EPHEMERIS_TYPE,CLASSIFICATION_TYPE,NORAD_CAT_ID,ELEMENT_SET_NO,REV_AT_EPOCH,BSTAR,MEAN_MOTION_DOT,MEAN_MOTION_DDOT
ONEWEB-0522,2022-138AD,2026-06-19T19:06:20.667456,13.19725052,.00017146,87.9183,304.4372,100.2523,259.8803,0,U,54140,999,17715,.16215267E-3,.78E-6,0
ONEWEB-0523,2022-138AE,2026-06-19T18:09:27.470016,13.20770986,.00027895,87.9199,273.9283,96.4901,263.6550,0,U,54141,999,17964,-.43796685E-4,-.5E-7,0
ONEWEB-0524,2022-138AF,2026-06-19T17:54:54.967392,13.20771736,.00027001,87.9197,273.9274,113.9849,246.1567,0,U,54142,999,17964,.4277445E-4,.3E-6,0
ONEWEB-0525,2022-138AG,2026-06-19T19:33:37.480896,13.19725454,.00015711,87.9182,304.4411,109.2107,250.9196,0,U,54143,999,17717,-.32523775E-3,-.117E-5,0
ONEWEB-0526,2022-138AH,2026-06-19T18:32:12.833664,13.19726262,.00018348,87.9186,304.4500,103.8155,256.3182,0,U,54144,999,17714,.32276874E-4,.26E-6,0
ONEWEB-0529,2022-138AJ,2026-06-19T18:36:46.186848,13.19724889,.00016777,87.9176,304.4580,104.6844,255.4475,0,U,54145,999,17716,.12083184E-3,.61E-6,0
ONEWEB-0531,2022-138AK,2026-06-19T17:35:31.843680,13.20772099,.00028648,87.9195,273.9277,101.4574,258.6881,0,U,54146,999,17964,-.7039823E-4,-.16E-6,0
ONEWEB-0535,2022-138AL,2026-06-19T19:24:31.614336,13.19725303,.00021556,87.9181,304.4361,94.6509,265.4870,0,U,54147,999,17718,.16658034E-4,.2E-6,0
ONEWEB-0536,2022-138AM,2026-06-19T13:37:56.792352,13.20771574,.00029835,87.9185,273.9828,104.8162,255.3302,0,U,54148,999,17961,.20283445E-4,.21E-6,0
ONEWEB-0527,2022-166A,2026-06-19T18:00:26.623296,13.21823478,.00019795,87.9250,243.4873,100.2440,259.8917,0,U,54642,999,17187,.14117096E-3,.71E-6,0
ONEWEB-0528,2022-166B,2026-06-19T18:01:39.182880,13.21824594,.00018889,87.9252,243.4893,104.0960,256.0384,0,U,54643,999,17188,.90974153E-4,.51E-6,0
ONEWEB-0539,2022-166C,2026-06-19T15:18:09.806400,13.21827150,.00019224,87.9260,243.4839,93.0418,267.0936,0,U,54644,999,17186,.88409916E-4,.5E-6,0
ONEWEB-0540,2022-166D,2026-06-19T17:17:02.799456,13.21827698,.00020022,87.9253,243.4976,95.1795,264.9567,0,U,54645,999,17186,.21446704E-3,.102E-5,0
ONEWEB-0542,2022-166E,2026-06-19T15:32:41.076096,13.21825973,.00019148,87.9262,243.4806,90.1593,269.9760,0,U,54646,999,17186,-.29461186E-3,-.109E-5,0
ONEWEB-0545,2022-166F,2026-06-19T18:19:50.196288,13.21877927,.00020758,87.9253,243.4695,75.8734,284.2630,0,U,54647,999,17184,-.23682373E-1,-.9765E-4,0
ONEWEB-0580,2022-166G,2026-06-19T17:43:28.561728,13.21827612,.00021715,87.9253,243.4740,88.0165,272.1218,0,U,54648,999,17188,.47915305E-4,.33E-6,0
ONEWEB-0582,2022-166H,2026-06-19T16:55:03.441216,13.21827086,.00020989,87.9253,243.4732,86.6096,273.5278,0,U,54649,999,17185,.18859355E-3,.91E-6,0
ONEWEB-0583,2022-166J,2026-06-19T15:22:59.841696,13.21825409,.00019965,87.9252,243.5093,95.6531,264.4831,0,U,54650,999,17185,-.31188872E-3,-.116E-5,0
ONEWEB-0584,2022-166K,2026-06-19T17:41:04.393824,13.21825864,.00020757,87.9247,243.4757,95.0757,265.0614,0,U,54651,999,17185,.26999658E-3,.125E-5,0
ONEWEB-0585,2022-166L,2026-06-19T18:14:59.808480,13.21826549,.00020223,87.9255,243.4582,103.4435,256.6924,0,U,54652,999,17186,.96718839E-4,.53E-6,0
ONEWEB-0586,2022-166M,2026-06-19T16:45:21.493152,13.21824616,.00019524,87.9255,243.4959,93.7800,266.3557,0,U,54653,999,17185,.38758888E-3,.173E-5,0
ONEWEB-0587,2022-166N,2026-06-19T16:59:53.500704,13.21824717,.00020787,87.9265,243.4675,107.9989,252.1372,0,U,54654,999,17201,.12937185E-3,.66E-6,0
ONEWEB-0589,2022-166P,2026-06-19T16:40:30.955008,13.21824386,.0002308,87.9250,243.4822,76.8532,283.2859,0,U,54655,999,17187,.21052176E-3,.1E-5,0
ONEWEB-0590,2022-166Q,2026-06-19T17:16:39.145728,13.21827835,.00024941,87.9261,243.4677,98.5749,261.5667,0,U,54656,999,17186,.45519467E-4,.32E-6,0
ONEWEB-0591,2022-166R,2026-06-19T17:33:49.270464,13.21826650,.00020876,87.9251,243.4798,98.0932,262.0439,0,U,54657,999,17189,.1337806E-4,.19E-6,0
ONEWEB-0592,2022-166S,2026-06-19T17:38:38.511744,13.21827582,.00020196,87.9261,243.4575,98.3043,261.8320,0,U,54658,999,17177,.43251004E-4,.31E-6,0
ONEWEB-0593,2022-166T,2026-06-19T16:21:07.759584,13.21824549,.00018966,87.9254,243.4798,95.2607,264.8743,0,U,54659,999,17187,.20771697E-3,.99E-6,0
ONEWEB-0594,2022-166U,2026-06-19T16:50:12.582528,13.21828046,.00019088,87.9252,243.4919,103.1127,257.0220,0,U,54660,999,17189,.23587442E-3,.11E-5,0
ONEWEB-0595,2022-166V,2026-06-19T18:05:17.151936,13.21826416,.00021377,87.9260,243.4624,104.7996,255.3375,0,U,54661,999,17187,-.28820056E-3,-.106E-5,0
ONEWEB-0596,2022-166W,2026-06-19T15:39:57.874752,13.21827042,.00020609,87.9254,243.4939,101.2969,258.8397,0,U,54662,999,17186,.10738879E-3,.57E-6,0
